OBJECT_NAME,OBJECT_ID,EPOCH,MEAN_MOTION,ECCENTRICITY,INCLINATION,RA_OF_ASC_NODE,ARG_OF_PERICENTER,MEAN_ANOMALY,EPHEMERIS_TYPE,CLASSIFICATION_TYPE,NORAD_CAT_ID,ELEMENT_SET_NO,REV_AT_EPOCH,BSTAR,MEAN_MOTION_DOT,MEAN_MOTION_DDOT
ONEWEB-0647,2023-043AK,2026-06-14T12:56:26.079072,13.15548866,.0001847,87.9000,259.7546,97.6231,262.5110,0,U,56079,999,15607,.25775E-3,.11E-5,0
ONEWEB-0651,2023-043AL,2026-06-14T12:49:35.051808,13.15549075,.0002103,87.8999,259.7491,94.5278,265.6092,0,U,56080,999,15727,.23458E-3,.101E-5,0
ONEWEB-0718,2023-043AM,2026-06-14T12:42:42.566112,13.15547846,.0002347,87.8999,259.7307,110.6554,249.4828,0,U,56081,999,15608,-.91558E-3,-.332E-5,0
ONEWEB-0561,2023-068A,2026-06-14T13:06:31.259232,13.20772503,.0001757,87.9193,274.9694,90.2768,269.8566,0,U,56710,999,14915,.46221E-3,.201E-5,0
ONEWEB-0668,2023-068B,2026-06-14T11:09:39.525120,13.16594646,.0002609,87.9097,229.3130,100.6810,259.4615,0,U,56711,999,15142,.41986E-3,.173E-5,0
ONEWEB-0676,2023-068C,2026-06-14T04:03:17.865792,13.16593242,.00020658,87.9100,229.3778,88.9057,271.2310,0,U,56712,999,15130,.47596691E-3,.195E-5,0
ONEWEB-0677,2023-068D,2026-06-14T12:49:31.651968,13.20770714,.0002268,87.9192,274.9633,93.0152,267.1240,0,U,56713,999,14945,-.49066E-5,.11E-6,0
ONEWEB-0678,2023-068E,2026-06-14T06:28:31.760256,13.15548751,.0001688,87.9011,259.7740,100.8927,259.2393,0,U,56714,999,14890,.24486E-3,.105E-5,0
ONEWEB-0679,2023-068F,2026-06-14T10:21:46.597248,13.16594430,.0002589,87.9100,229.3171,92.2183,267.9245,0,U,56715,999,15136,-.27526E-3,-.92E-6,0
ONEWEB-0680,2023-068G,2026-06-14T10:42:58.614336,13.21828253,.0002604,87.9262,244.5160,99.0214,261.1215,0,U,56716,999,15073,-.94675E-4,-.26E-6,0
ONEWEB-0681,2023-068H,2026-06-14T06:37:07.041216,13.21827136,.0002097,87.9259,244.5514,72.3045,287.8317,0,U,56717,999,15070,-.34318E-4,-.1E-7,0
ONEWEB-0682,2023-068J,2026-06-14T12:31:19.982784,13.15548754,.0002549,87.9007,259.7247,100.0580,260.0838,0,U,56718,999,14910,-.22808E-3,-.73E-6,0
ONEWEB-0683,2023-068K,2026-06-14T13:05:33.614016,13.15548700,.0002246,87.9011,259.7197,103.5457,256.5924,0,U,56719,999,14907,.37408E-3,.154E-5,0
ONEWEB-0684,2023-068L,2026-06-14T13:16:57.828576,13.15548479,.0001356,87.9008,259.7081,143.0319,217.0904,0,U,56720,999,14890,.48052E-3,.194E-5,0
ONEWEB-0686,2023-068M,2026-06-14T11:14:13.274016,13.16594564,.0002179,87.9090,229.3334,106.7647,253.3723,0,U,56721,999,15135,.181E-3,.82E-6,0
ONEWEB-0694,2023-068N,2026-06-14T11:23:20.142816,13.16595075,.0002533,87.9111,229.2961,99.6554,260.4864,0,U,56722,999,15141,.32669E-3,.138E-5,0
ONEWEB-0696,2023-068P,2026-06-14T12:15:19.879200,13.15546373,.0001498,87.9002,259.7551,100.7201,259.4098,0,U,56723,999,14901,-.23212E-3,-.75E-6,0
ONEWEB-0703,2023-068Q,2026-06-14T12:29:02.782176,13.15548723,.0001211,87.9001,259.7345,85.4745,274.6524,0,U,56724,999,14890,-.2795E-3,-.92E-6,0
ONEWEB-0721,2023-068R,2026-06-14T11:48:13.471776,13.22468713,.0001919,86.6766,86.3766,77.8301,282.3047,0,U,56725,999,15758,.91681E-4,.53E-6,0
ONEWEB-0015,2024-188A,2026-06-14T02:31:11.015040,13.11419768,.00022503,87.8889,21.7069,75.1599,284.9779,0,U,61594,999,8405,-.6305537E-3,-.211E-5,0
ONEWEB-0687,2024-188B,2026-06-14T11:55:47.551296,13.17648461,.0002352,87.9129,6.4118,87.8624,272.2777,0,U,61595,999,8554,.78076E-4,.43E-6,0
ONEWEB-0688,2024-188C,2026-06-14T12:37:06.273984,13.17648426,.0002773,87.9128,6.4061,66.9724,293.1700,0,U,61596,999,8554,.11196E-3,.56E-6,0
ONEWEB-0689,2024-188D,2026-06-14T12:29:21.726240,13.11417066,.0002045,87.8903,21.5816,91.7513,268.3849,0,U,61597,999,8410,.13451E-2,.489E-5,0
ONEWEB-0690,2024-188E,2026-06-14T12:44:00.772800,13.11413859,.0001286,87.8896,21.5915,70.5690,289.5577,0,U,61598,999,8428,.16783E-3,.72E-6,0
ONEWEB-0691,2024-188F,2026-06-14T12:36:42.160608,13.11415088,.0002157,87.8906,21.5009,79.8681,280.2690,0,U,61599,999,8413,.74239E-3,.276E-5,0
ONEWEB-0692,2024-188G,2026-06-14T07:36:22.152384,13.11414760,.0001788,87.8888,21.6562,111.4714,248.6605,0,U,61600,999,8409,-.13812E-2,-.477E-5,0
ONEWEB-0693,2024-188H,2026-06-14T11:04:45.613056,13.17647939,.000138,87.9124,6.4389,64.3309,295.7965,0,U,61601,999,8552,.10745E-3,.55E-6,0
ONEWEB-0695,2024-188J,2026-06-14T12:31:49.014048,13.11414688,.0002025,87.8886,21.6072,100.3421,259.7935,0,U,61602,999,8411,.11211E-2,.41E-5,0
ONEWEB-0697,2024-188K,2026-06-14T07:48:34.560864,13.11417325,.0001693,87.8887,21.6370,110.1858,249.9452,0,U,61603,999,8407,-.19295E-2,-.671E-5,0
ONEWEB-0698,2024-188L,2026-06-14T12:46:26.986656,13.11413621,.0000806,87.8886,21.6096,115.0514,245.0697,0,U,61604,999,8412,-.34251E-5,.11E-6,0
ONEWEB-0699,2024-188M,2026-06-14T03:52:09.408864,13.10376098,.00015263,87.8835,36.8690,103.4334,256.6964,0,U,61605,999,8291,.14760936E-2,.528E-5,0
