ONEWEB-0647             
1 56079U 23043AK  26165.53919073  .00000110  00000+0  25775-3 0  9996
2 56079  87.9000 259.7546 0001847  97.6231 262.5110 13.15548866156072
ONEWEB-0651             
1 56080U 23043AL  26165.53443347  .00000101  00000+0  23458-3 0  9990
2 56080  87.8999 259.7491 0002103  94.5278 265.6092 13.15549075157271
ONEWEB-0718             
1 56081U 23043AM  26165.52965933 -.00000332  00000+0 -91558-3 0  9994
2 56081  87.8999 259.7307 0002347 110.6554 249.4828 13.15547846156084
ONEWEB-0561             
1 56710U 23068A   26165.54619513  .00000201  00000+0  46221-3 0  9992
2 56710  87.9193 274.9694 0001757  90.2768 269.8566 13.20772503149153
ONEWEB-0668             
1 56711U 23068B   26165.46504080  .00000173  00000+0  41986-3 0  9997
2 56711  87.9097 229.3130 0002609 100.6810 259.4615 13.16594646151425
ONEWEB-0676             
1 56712U 23068C   26165.16895678  .00000195  00000+0  47597-3 0  9999
2 56712  87.9100 229.3778 0002065  88.9057 271.2310 13.16593242151308
ONEWEB-0677             
1 56713U 23068D   26165.53439412  .00000011  00000+0 -49066-5 0  9994
2 56713  87.9192 274.9633 0002268  93.0152 267.1240 13.20770714149459
ONEWEB-0678             
1 56714U 23068E   26165.26981204  .00000105  00000+0  24486-3 0  9996
2 56714  87.9011 259.7740 0001688 100.8927 259.2393 13.15548751148900
ONEWEB-0679             
1 56715U 23068F   26165.43178932 -.00000092  00000+0 -27526-3 0  9997
2 56715  87.9100 229.3171 0002589  92.2183 267.9245 13.16594430151362
ONEWEB-0680             
1 56716U 23068G   26165.44651174 -.00000026  00000+0 -94675-4 0  9990
2 56716  87.9262 244.5160 0002604  99.0214 261.1215 13.21828253150739
ONEWEB-0681             
1 56717U 23068H   26165.27577594 -.00000001  00000+0 -34318-4 0  9996
2 56717  87.9259 244.5514 0002097  72.3045 287.8317 13.21827136150705
ONEWEB-0682             
1 56718U 23068J   26165.52175906 -.00000073  00000+0 -22808-3 0  9995
2 56718  87.9007 259.7247 0002549 100.0580 260.0838 13.15548754149105
ONEWEB-0683             
1 56719U 23068K   26165.54552794  .00000154  00000+0  37408-3 0  9992
2 56719  87.9011 259.7197 0002246 103.5457 256.5924 13.15548700149073
ONEWEB-0684             
1 56720U 23068L   26165.55344709  .00000194  00000+0  48052-3 0  9991
2 56720  87.9008 259.7081 0001356 143.0319 217.0904 13.15548479148904
ONEWEB-0686             
1 56721U 23068M   26165.46820919  .00000082  00000+0  18100-3 0  9991
2 56721  87.9090 229.3334 0002179 106.7647 253.3723 13.16594564151356
ONEWEB-0694             
1 56722U 23068N   26165.47453869  .00000138  00000+0  32669-3 0  9997
2 56722  87.9111 229.2961 0002533  99.6554 260.4864 13.16595075151417
ONEWEB-0696             
1 56723U 23068P   26165.51064675 -.00000075  00000+0 -23212-3 0  9992
2 56723  87.9002 259.7551 0001498 100.7201 259.4098 13.15546373149018
ONEWEB-0703             
1 56724U 23068Q   26165.52017109 -.00000092  00000+0 -27950-3 0  9996
2 56724  87.9001 259.7345 0001211  85.4745 274.6524 13.15548723148905
ONEWEB-0721             
1 56725U 23068R   26165.49182259  .00000053  00000+0  91681-4 0  9990
2 56725  86.6766  86.3766 0001919  77.8301 282.3047 13.22468713157587
ONEWEB-0015             
1 61594U 24188A   26165.10498860 -.00000211  00000+0 -63055-3 0  9991
2 61594  87.8889  21.7069 0002250  75.1599 284.9779 13.11419768 84059
ONEWEB-0687             
1 61595U 24188B   26165.49707814  .00000043  00000+0  78076-4 0  9997
2 61595  87.9129   6.4118 0002352  87.8624 272.2777 13.17648461 85548
ONEWEB-0688             
1 61596U 24188C   26165.52576706  .00000056  00000+0  11196-3 0  9999
2 61596  87.9128   6.4061 0002773  66.9724 293.1700 13.17648426 85540
ONEWEB-0689             
1 61597U 24188D   26165.52039035  .00000489  00000+0  13451-2 0  9994
2 61597  87.8903  21.5816 0002045  91.7513 268.3849 13.11417066 84108
ONEWEB-0690             
1 61598U 24188E   26165.53056450  .00000072  00000+0  16783-3 0  9996
2 61598  87.8896  21.5915 0001286  70.5690 289.5577 13.11413859 84285
ONEWEB-0691             
1 61599U 24188F   26165.52548797  .00000276  00000+0  74239-3 0  9992
2 61599  87.8906  21.5009 0002157  79.8681 280.2690 13.11415088 84136
ONEWEB-0692             
1 61600U 24188G   26165.31692306 -.00000477  00000+0 -13812-2 0  9992
2 61600  87.8888  21.6562 0001788 111.4714 248.6605 13.11414760 84097
ONEWEB-0693             
1 61601U 24188H   26165.46163904  .00000055  00000+0  10745-3 0  9999
2 61601  87.9124   6.4389 0001380  64.3309 295.7965 13.17647939 85527
ONEWEB-0695             
1 61602U 24188J   26165.52209507  .00000410  00000+0  11211-2 0  9990
2 61602  87.8886  21.6072 0002025 100.3421 259.7935 13.11414688 84111
ONEWEB-0697             
1 61603U 24188K   26165.32540001 -.00000671  00000+0 -19295-2 0  9997
2 61603  87.8887  21.6370 0001693 110.1858 249.9452 13.11417325 84078
ONEWEB-0698             
1 61604U 24188L   26165.53225679  .00000011  00000+0 -34251-5 0  9991
2 61604  87.8886  21.6096 0000806 115.0514 245.0697 13.11413621 84120
ONEWEB-0699             
1 61605U 24188M   26165.16122001  .00000528  00000+0  14761-2 0  9999
2 61605  87.8835  36.8690 0001526 103.4334 256.6964 13.10376098 82919
